[{"OBJECT_NAME":"STARLINK-31431","OBJECT_ID":"2024-036E","EPOCH":"2026-03-09T07:41:32.917632","MEAN_MOTION":15.30193239,"ECCENTRICITY":0.00010053,"INCLINATION":53.1602,"RA_OF_ASC_NODE":80.0625,"ARG_OF_PERICENTER":85.4034,"MEAN_ANOMALY":274.7081,"EPHEMERIS_TYPE":0,"CLASSIFICATION_TYPE":"U","NORAD_CAT_ID":59002,"ELEMENT_SET_NO":999,"REV_AT_EPOCH":11526,"BSTAR":1.0312127e-5,"MEAN_MOTION_DOT":-5.4e-7,"MEAN_MOTION_DDOT":0},{"OBJECT_NAME":"SIMSAT 2","OBJECT_ID":"2000-026B","EPOCH":"2026-03-09T20:25:01.673184","MEAN_MOTION":15.29036787,"ECCENTRICITY":0.00037035,"INCLINATION":86.3514,"RA_OF_ASC_NODE":176.4271,"ARG_OF_PERICENTER":287.9875,"MEAN_ANOMALY":72.0969,"EPHEMERIS_TYPE":0,"CLASSIFICATION_TYPE":"U","NORAD_CAT_ID":26366,"ELEMENT_SET_NO":999,"REV_AT_EPOCH":42803,"BSTAR":0.00013465771,"MEAN_MOTION_DOT":3.833e-5,"MEAN_MOTION_DDOT":0}]
